[{"OBJECT_NAME":"NUSAT-41 (C PAYNE-G)","OBJECT_ID":"2023-084N","EPOCH":"2026-03-09T21:55:54.837696","MEAN_MOTION":15.29680045,"ECCENTRICITY":0.00062175,"INCLINATION":97.5351,"RA_OF_ASC_NODE":204.1011,"ARG_OF_PERICENTER":322.2064,"MEAN_ANOMALY":37.8738,"EPHEMERIS_TYPE":0,"CLASSIFICATION_TYPE":"U","NORAD_CAT_ID":56944,"ELEMENT_SET_NO":999,"REV_AT_EPOCH":15260,"BSTAR":0.00059912824,"MEAN_MOTION_DOT":0.0001718,"MEAN_MOTION_DDOT":0},{"OBJECT_NAME":"STARLINK-32938","OBJECT_ID":"2025-048U","EPOCH":"2026-03-09T02:42:48.949056","MEAN_MOTION":15.27619256,"ECCENTRICITY":0.0001638,"INCLINATION":42.9993,"RA_OF_ASC_NODE":88.5968,"ARG_OF_PERICENTER":281.6185,"MEAN_ANOMALY":78.4483,"EPHEMERIS_TYPE":0,"CLASSIFICATION_TYPE":"U","NORAD_CAT_ID":63201,"ELEMENT_SET_NO":999,"REV_AT_EPOCH":5700,"BSTAR":0.0010035032,"MEAN_MOTION_DOT":0.00027488,"MEAN_MOTION_DDOT":0}]
